NORAD_CAT_ID,OBJECT_NAME,OBJECT_TYPE,EPOCH,MEAN_MOTION,ECCENTRICITY,INCLINATION,RA_OF_ASC_NODE,ARG_OF_PERICENTER,MEAN_ANOMALY,BSTAR,MEAN_MOTION_DOT,MEAN_MOTION_DDOT,TLE_LINE0,TLE_LINE1,TLE_LINE2,SEMIMAJOR_AXIS,PERIOD,APOGEE,PERIGEE,DECAYED
48148,STARLINK-2491,PAYLOAD,2021-05-18 14:00:01,15.49778092,0.0001091,53.0465,137.8814,76.1455,235.2024,-0.022805000000000002,-0.011773200000000001,0.0,0 STARLINK-2491,1 48148U 21027BJ  21138.58335648 -.01177320  00000-0 -22805-1 0  9995,2 48148  53.0465 137.8814 0001091  76.1455 235.2024 15.49778092  1765,6795.512,92.917,418.11800000000005,416.635,0.0
48148,STARLINK-2491,PAYLOAD,2021-05-18 20:00:01,15.49148321,0.00011690000000000001,53.0469,136.6845,77.9144,188.7467,-0.023507,-0.01185935,0.0,0 STARLINK-2491,1 48148U 21027BJ  21138.83335648 -.01185935  00000-0 -23507-1 0  9994,2 48148  53.0469 136.6845 0001169  77.9144 188.7467 15.49148321  7327,6797.353,92.954,420.01300000000003,418.42400000000004,0.0
48148,STARLINK-2491,PAYLOAD,2021-05-18 22:00:01,15.48936396,0.0001093,53.0468,136.2863,69.3812,302.2575,-0.023687,-0.01186051,0.0,0 STARLINK-2491,1 48148U 21027BJ  21138.91668981 -.01186051  00000-0 -23687-1 0  9991,2 48148  53.0468 136.2863 0001093  69.3812 302.2575 15.48936396  1823,6797.973000000001,92.96700000000001,420.58099999999996,419.095,0.0
48148,STARLINK-2491,PAYLOAD,2021-05-19 12:00:00,15.474510800000001,0.0001093,53.04600000000001,133.4836,83.5035,301.13,-0.024897,-0.011834200000000001,0.0,0 STARLINK-2491,1 48148U 21027BJ  21139.50001157 -.01183420  00000-0 -24897-1 0  9994,2 48148  53.0460 133.4836 0001093  83.5035 301.1300 15.47451080  7437,6802.323,93.056,424.931,423.444,0.0
48148,STARLINK-2491,PAYLOAD,2021-05-19 14:00:01,15.47194039,0.0001392,53.0459,133.0791,69.865,59.2596,-0.023688999999999998,-0.01121553,0.0,0 STARLINK-2491,1 48148U 21027BJ  21139.58334491 -.01121553  00000-0 -23689-1 0  9999,2 48148  53.0459 133.0791 0001392  69.8650  59.2596 15.47194039  1769,6803.076,93.072,425.88800000000003,423.994,0.0
48148,STARLINK-2491,PAYLOAD,2021-05-19 22:00:00,15.46320449,0.0001485,53.0473,131.4816,67.2892,119.0877,-0.023613,-0.01072343,0.0,0 STARLINK-2491,1 48148U 21027BJ  21139.91667824 -.01072343  00000-0 -23613-1 0  9994,2 48148  53.0473 131.4816 0001485  67.2892 119.0877 15.46320449  1760,6805.638000000001,93.124,428.514,426.49199999999996,0.0
48148,STARLINK-2491,PAYLOAD,2021-05-20 04:00:01,15.45756008,0.0001429,53.0481,130.2934,59.3047,79.3579,-0.026307999999999998,-0.01179378,0.0,0 STARLINK-2491,1 48148U 21027BJ  21140.16668981 -.01179378  00000-0 -26308-1 0  9998,2 48148  53.0481 130.2934 0001429  59.3047  79.3579 15.45756008  7530,6807.295,93.15799999999999,430.13199999999995,428.18699999999995,0.0
48148,STARLINK-2491,PAYLOAD,2021-05-20 14:00:01,15.44699692,0.0001146,53.0455,128.3021,79.8369,217.9214,-0.027268,-0.01178721,0.0,0 STARLINK-2491,1 48148U 21027BJ  21140.58334491 -.01178721  00000-0 -27268-1 0  9997,2 48148  53.0455 128.3021 0001146  79.8369 217.9214 15.44699692  1811,6810.398,93.22200000000001,433.043,431.48199999999997,0.0
48148,STARLINK-2491,PAYLOAD,2021-05-20 16:00:00,15.444888800000001,0.00011690000000000001,53.0457,127.9066,70.4143,330.9855,-0.027471,-0.011789299999999999,0.0,0 STARLINK-2491,1 48148U 21027BJ  21140.66667824 -.01178930  00000-0 -27471-1 0  9993,2 48148  53.0457 127.9066 0001169  70.4143 330.9855 15.44488880  7615,6811.017,93.235,433.67900000000003,432.086,0.0
48148,STARLINK-2491,PAYLOAD,2021-05-21 14:00:01,15.42164493,0.0001295,53.0452,123.5331,68.4392,28.9004,-0.029545,-0.01172291,0.0,0 STARLINK-2491,1 48148U 21027BJ  21141.58335648 -.01172291  00000-0 -29545-1 0  9999,2 48148  53.0452 123.5331 0001295  68.4392  28.9004 15.42164493  1769,6817.859,93.375,440.60699999999997,438.841,0.0
48148,STARLINK-2491,PAYLOAD,2021-05-21 20:00:01,15.415350699999998,0.0001205,53.0454,122.3501,68.5111,337.2805,-0.03023,-0.01174137,0.0,0 STARLINK-2491,1 48148U 21027BJ  21141.83335648 -.01174137  00000-0 -30230-1 0  9991,2 48148  53.0454 122.3501 0001205  68.5111 337.2805 15.41535070  7794,6819.715,93.413,442.402,440.75800000000004,0.0
48148,STARLINK-2491,PAYLOAD,2021-05-21 22:00:00,15.41324346,0.000135,53.0456,121.9566,72.304,76.1144,-0.030411,-0.01172997,0.0,0 STARLINK-2491,1 48148U 21027BJ  21141.91667824 -.01172997  00000-0 -30411-1 0  9997,2 48148  53.0456 121.9566 0001350  72.3040  76.1144 15.41324346  1811,6820.3369999999995,93.426,443.12199999999996,441.281,0.0
48148,STARLINK-2491,PAYLOAD,2021-05-22 14:00:01,15.39640844,0.00012660000000000001,53.0455,118.7864,77.2365,170.4361,-0.032104,-0.01170903,0.0,0 STARLINK-2491,1 48148U 21027BJ  21142.58334491 -.01170903  00000-0 -32104-1 0  9998,2 48148  53.0455 118.7864 0001266  77.2365 170.4361 15.39640844  7901,6825.308000000001,93.52799999999999,448.037,446.30800000000005,0.0
48148,STARLINK-2491,PAYLOAD,2021-05-22 22:00:00,15.38791825,0.00011999999999999999,53.0478,117.2075,70.7723,225.0163,-0.032586000000000004,-0.01156907,0.0,0 STARLINK-2491,1 48148U 21027BJ  21142.91667824 -.01156907  00000-0 -32586-1 0  9996,2 48148  53.0478 117.2075 0001200  70.7723 225.0163 15.38791825  1768,6827.818,93.58,450.50199999999995,448.86400000000003,0.0
48148,STARLINK-2491,PAYLOAD,2021-05-23 06:00:00,15.37893681,0.0001202,53.0475,115.6284,81.3603,261.5582,-0.031041000000000006,-0.01077035,0.0,0 STARLINK-2491,1 48148U 21027BJ  21143.25001157 -.01077035  00000-0 -31041-1 0  9994,2 48148  53.0475 115.6284 0001202  81.3603 261.5582 15.37893681  8013,6830.476,93.635,453.162,451.52,0.0
48148,STARLINK-2491,PAYLOAD,2021-05-23 14:00:01,15.37122195,0.00011870000000000001,53.0461,114.0586,67.7547,321.2245,-0.03475,-0.01167069,0.0,0 STARLINK-2491,1 48148U 21027BJ  21143.58334491 -.01167069  00000-0 -34750-1 0  9997,2 48148  53.0461 114.0586 0001187  67.7547 321.2245 15.37122195  8063,6832.7609999999995,93.682,455.43699999999995,453.815,0.0
48148,STARLINK-2491,PAYLOAD,2021-05-23 22:00:00,15.36284858,0.00012890000000000002,53.0463,112.4947,67.5781,6.4866,-0.035651,-0.01165374,0.0,0 STARLINK-2491,1 48148U 21027BJ  21143.91667824 -.01165374  00000-0 -35651-1 0  9991,2 48148  53.0463 112.4947 0001289  67.5781   6.4866 15.36284858  1821,6835.244000000002,93.73299999999999,457.99,456.228,0.0
48148,STARLINK-2491,PAYLOAD,2021-05-24 06:00:00,15.35402308,0.0001421,53.0476,110.9121,77.9967,40.1689,-0.034527999999999996,-0.0110265,0.0,0 STARLINK-2491,1 48148U 21027BJ  21144.25001157 -.01102650  00000-0 -34528-1 0  9990,2 48148  53.0476 110.9121 0001421  77.9967  40.1689 15.35402308  8164,6837.863,93.786,460.699,458.756,0.0
48148,STARLINK-2491,PAYLOAD,2021-05-24 14:00:01,15.34609553,0.0001437,53.0456,109.3461,65.7686,95.4511,-0.037513,-0.01162125,0.0,0 STARLINK-2491,1 48148U 21027BJ  21144.58334491 -.01162125  00000-0 -37513-1 0  9996,2 48148  53.0456 109.3461 0001437  65.7686  95.4511 15.34609553  8214,6840.217,93.835,463.065,461.1,0.0
48148,STARLINK-2491,PAYLOAD,2021-05-24 22:00:00,15.33714243,0.0001493,53.0454,107.7767,59.89100000000001,143.4284,-0.035658999999999996,-0.01080784,0.0,0 STARLINK-2491,1 48148U 21027BJ  21144.91667824 -.01080784  00000-0 -35659-1 0  9991,2 48148  53.0454 107.7767 0001493  59.8910 143.4284 15.33714243  1765,6842.879,93.89,465.76599999999996,463.723,0.0
48148,STARLINK-2491,PAYLOAD,2021-05-25 14:00:01,15.32105165,0.0001258,53.0457,104.6538,69.9698,214.4473,-0.040510000000000004,-0.01159125,0.0,0 STARLINK-2491,1 48148U 21027BJ  21145.58334491 -.01159125  00000-0 -40510-1 0  9994,2 48148  53.0457 104.6538 0001258  69.9698 214.4473 15.32105165  1769,6847.669,93.988,470.39599999999996,468.673,0.0
48148,STARLINK-2491,PAYLOAD,2021-05-25 16:00:00,15.31897074,0.0001256,53.0459,104.2654,61.378,322.8981,-0.040781,-0.01159236,0.0,0 STARLINK-2491,1 48148U 21027BJ  21145.66667824 -.01159236  00000-0 -40781-1 0  9995,2 48148  53.0459 104.2654 0001256  61.3780 322.8981 15.31897074  8381,6848.29,94.001,471.015,469.29400000000004,0.0
48148,STARLINK-2491,PAYLOAD,2021-05-25 22:00:01,15.31272445,0.00012179999999999999,53.0461,103.102,67.4063,256.1343,-0.041523000000000004,-0.01157523,0.0,0 STARLINK-2491,1 48148U 21027BJ  21145.91668981 -.01157523  00000-0 -41523-1 0  9990,2 48148  53.0461 103.1020 0001218  67.4063 256.1343 15.31272445  1820,6850.151999999999,94.039,472.851,471.18199999999996,0.0
48148,STARLINK-2491,PAYLOAD,2021-05-26 12:00:00,15.29815386,0.0001214,53.0476,100.3701,83.5479,215.8774,-0.043374,-0.01155503,0.0,0 STARLINK-2491,1 48148U 21027BJ  21146.50001157 -.01155503  00000-0 -43374-1 0  9994,2 48148  53.0476 100.3701 0001214  83.5479 215.8774 15.29815386  1797,6854.501,94.12899999999999,477.19800000000004,475.534,0.0
48148,STARLINK-2491,PAYLOAD,2021-05-26 22:00:00,15.287454,0.0001525,53.0455,98.4227,51.5903,23.0827,-0.043038,-0.01113168,0.0,0 STARLINK-2491,1 48148U 21027BJ  21146.91667824 -.01113168  00000-0 -43038-1 0  9996,2 48148  53.0455  98.4227 0001525  51.5903  23.0827 15.28745400  8575,6857.699000000001,94.195,480.60900000000004,478.51800000000003,0.0
48148,STARLINK-2491,PAYLOAD,2021-05-27 14:00:01,15.27115669,0.0001389,53.0466,95.3272,77.8154,65.9687,-0.046937,-0.01166485,0.0,0 STARLINK-2491,1 48148U 21027BJ  21147.58334491 -.01166485  00000-0 -46937-1 0  9992,2 48148  53.0466  95.3272 0001389  77.8154  65.9687 15.27115669  8677,6862.5769999999975,94.295,485.395,483.48900000000003,0.0
48148,STARLINK-2491,PAYLOAD,2021-05-27 22:00:00,15.26269182,0.0001584,53.0455,93.7725,58.1013,118.7599,-0.047036,-0.01126394,0.0,0 STARLINK-2491,1 48148U 21027BJ  21147.91667824 -.01126394  00000-0 -47036-1 0  9994,2 48148  53.0455  93.7725 0001584  58.1013 118.7599 15.26269182  1764,6865.114000000001,94.348,488.066,485.892,0.0
48148,STARLINK-2491,PAYLOAD,2021-05-28 10:00:00,15.25044297,0.00013030000000000002,53.0461,91.4564,63.1301,341.458,-0.049857,-0.011637200000000002,0.0,0 STARLINK-2491,1 48148U 21027BJ  21148.41667824 -.01163720  00000-0 -49857-1 0  9997,2 48148  53.0461  91.4564 0001303  63.1301 341.4580 15.25044297  8806,6868.7890000000025,94.42299999999999,491.54900000000004,489.759,0.0
